QIANFAN-73              
1 63159U 25046A   25285.35377175  .00000131  00000+0  18398-3 0  9997
2 63159  88.9799 326.3773 0013028 305.4465  54.5469 13.50969014 39124
QIANFAN-74              
1 63160U 25046B   25285.26324588  .00000132  00000+0  18631-3 0  9990
2 63160  88.9795 326.2749 0002206 100.7692 259.3708 13.50970901 39171
QIANFAN-75              
1 63161U 25046C   25285.25085866  .00000040  00000+0  42950-4 0  9993
2 63161  88.9802 326.5089 0014177 308.8480  51.1405 13.50978068 39047
QIANFAN-76              
1 63162U 25046D   25285.32086314 -.00000043  00000+0 -85069-4 0  9994
2 63162  88.9796 326.4823 0011818 310.0700  49.9414 13.50971300 39063
QIANFAN-77              
1 63163U 25046E   25285.26130084  .00000360  00000+0  25257-3 0  9994
2 63163  88.9797 325.0007 0012464 272.0264  87.9485 13.96068760 39870
QIANFAN-78              
1 63164U 25046F   25285.28797155  .00000139  00000+0  19704-3 0  9999
2 63164  88.9795 326.3506 0013180 312.3474  47.6560 13.50971258 39135
QIANFAN-79              
1 63165U 25046G   25285.31664927  .00000145  00000+0  20591-3 0  9997
2 63165  88.9804 326.4529 0012834 310.3820  49.6210 13.50970443 39084
QIANFAN-80              
1 63166U 25046H   25285.25915951  .00000162  00000+0  23201-3 0  9997
2 63166  88.9800 326.1673 0011904 316.1064  43.9140 13.50970966 39235
